ATLAS CENTAUR R/B       
1 06155U 72065B   26050.11230212  .00001230  00000+0  17067-3 0  9991
2 06155  35.0019  54.6169 0034179 214.7475 145.0992 14.77629006838519
SL-8 R/B                
1 08459U 75112B   26050.06978811  .00000134  00000+0  52781-4 0  9999
2 08459  74.0595  53.1655 0014967 153.4957 206.6966 14.38193159629190
SL-3 R/B                
1 10114U 77057B   26050.13322740  .00011876  00000+0  25418-3 0  9993
2 10114  97.5742 221.2486 0007227 359.0201   1.1032 15.44930856665465
SEASAT 1                
1 10967U 78064A   26050.02703277  .00000201  00000+0  94813-4 0  9990
2 10967 108.0151  86.3352 0001858 290.9875  69.1072 14.46144824503810
SL-14 R/B               
1 11267U 79011B   26050.13609199  .00000532  00000+0  50001-4 0  9995
2 11267  82.5237 114.1777 0017521 117.4964 242.8039 14.91884986526012
SL-8 R/B                
1 11574U 79089B   26050.15711370  .00000241  00000+0  80718-4 0  9993
2 11574  74.0689 125.3504 0016878 299.8776  60.0703 14.42338826433436
SL-14 R/B               
1 11672U 80005B   26049.80134330  .00000595  00000+0  57666-4 0  9995
2 11672  82.5173 325.1489 0014545 222.4622 137.5473 14.90905291473673
SL-8 R/B                
1 12139U 81003B   26050.12139877  .00013596  00000+0  35709-3 0  9999
2 12139  82.9397 307.1844 0262605 243.2812 114.1325 15.10266424311874
SL-3 R/B                
1 12465U 81046B   26050.15724706  .00011703  00000+0  27655-3 0  9991
2 12465  81.2336 311.9863 0020755  83.6057 276.7548 15.41469117435574
SL-3 R/B                
1 12904U 81103B   26050.09194081  .00004521  00000+0  20155-3 0  9991
2 12904  81.1557 235.2478 0013162 352.0993   8.0029 15.21137834970404
SL-3 R/B                
1 13068U 82013B   26050.10796078  .00005152  00000+0  22447-3 0  9997
2 13068  81.1760 182.5409 0021802 241.3117 118.5923 15.21800437401526
SL-3 R/B                
1 13154U 82039B   26050.10276817  .00002071  00000+0  12486-3 0  9994
2 13154  81.1590 237.3883 0030010  25.1820 335.0860 15.09968833378832
