CCSDS_OMM_VERS = 2.0
CREATION_DATE  = 
ORIGINATOR     = 

OBJECT_NAME    = ATLAS CENTAUR R/B
OBJECT_ID      = 1972-065B
CENTER_NAME    = EARTH
REF_FRAME      = TEME
TIME_SYSTEM    = UTC
MEAN_ELEMENT_THEORY = SGP/SGP4

EPOCH          = 2026-02-19T02:41:42.903168
MEAN_MOTION    = 14.77629006
ECCENTRICITY   = .0034179
INCLINATION    = 35.0019
RA_OF_ASC_NODE = 54.6169
ARG_OF_PERICENTER = 214.7475
MEAN_ANOMALY   = 145.0992

EPHEMERIS_TYPE = 0
CLASSIFICATION_TYPE = U
NORAD_CAT_ID   = 6155
ELEMENT_SET_NO = 999
REV_AT_EPOCH   = 83851
BSTAR          = .17067E-3
MEAN_MOTION_DOT = .123E-4
MEAN_MOTION_DDOT = 0

CCSDS_OMM_VERS = 2.0
CREATION_DATE  = 
ORIGINATOR     = 

OBJECT_NAME    = SL-8 R/B
OBJECT_ID      = 1975-112B
CENTER_NAME    = EARTH
REF_FRAME      = TEME
TIME_SYSTEM    = UTC
MEAN_ELEMENT_THEORY = SGP/SGP4

EPOCH          = 2026-02-19T01:40:29.692704
MEAN_MOTION    = 14.38193159
ECCENTRICITY   = .0014967
INCLINATION    = 74.0595
RA_OF_ASC_NODE = 53.1655
ARG_OF_PERICENTER = 153.4957
MEAN_ANOMALY   = 206.6966

EPHEMERIS_TYPE = 0
CLASSIFICATION_TYPE = U
NORAD_CAT_ID   = 8459
ELEMENT_SET_NO = 999
REV_AT_EPOCH   = 62919
BSTAR          = .52781E-4
MEAN_MOTION_DOT = .134E-5
MEAN_MOTION_DDOT = 0

CCSDS_OMM_VERS = 2.0
CREATION_DATE  = 
ORIGINATOR     = 

OBJECT_NAME    = SL-3 R/B
OBJECT_ID      = 1977-057B
CENTER_NAME    = EARTH
REF_FRAME      = TEME
TIME_SYSTEM    = UTC
MEAN_ELEMENT_THEORY = SGP/SGP4

EPOCH          = 2026-02-19T03:11:50.847360
MEAN_MOTION    = 15.44930856
ECCENTRICITY   = .0007227
INCLINATION    = 97.5742
RA_OF_ASC_NODE = 221.2486
ARG_OF_PERICENTER = 359.0201
MEAN_ANOMALY   = 1.1032

EPHEMERIS_TYPE = 0
CLASSIFICATION_TYPE = U
NORAD_CAT_ID   = 10114
ELEMENT_SET_NO = 999
REV_AT_EPOCH   = 66546
BSTAR          = .25418E-3
MEAN_MOTION_DOT = .11876E-3
MEAN_MOTION_DDOT = 0

CCSDS_OMM_VERS = 2.0
CREATION_DATE  = 
ORIGINATOR     = 

OBJECT_NAME    = SEASAT 1
OBJECT_ID      = 1978-064A
CENTER_NAME    = EARTH
REF_FRAME      = TEME
TIME_SYSTEM    = UTC
MEAN_ELEMENT_THEORY = SGP/SGP4

EPOCH          = 2026-02-19T00:38:55.631328
MEAN_MOTION    = 14.46144824
ECCENTRICITY   = .0001858
INCLINATION    = 108.0151
RA_OF_ASC_NODE = 86.3352
ARG_OF_PERICENTER = 290.9875
MEAN_ANOMALY   = 69.1072

EPHEMERIS_TYPE = 0
CLASSIFICATION_TYPE = U
NORAD_CAT_ID   = 10967
ELEMENT_SET_NO = 999
REV_AT_EPOCH   = 50381
BSTAR          = .94813E-4
MEAN_MOTION_DOT = .201E-5
MEAN_MOTION_DDOT = 0

CCSDS_OMM_VERS = 2.0
CREATION_DATE  = 
ORIGINATOR     = 

OBJECT_NAME    = SL-14 R/B
OBJECT_ID      = 1979-011B
CENTER_NAME    = EARTH
REF_FRAME      = TEME
TIME_SYSTEM    = UTC
MEAN_ELEMENT_THEORY = SGP/SGP4

EPOCH          = 2026-02-19T03:15:58.347936
MEAN_MOTION    = 14.91884986
ECCENTRICITY   = .0017521
INCLINATION    = 82.5237
RA_OF_ASC_NODE = 114.1777
ARG_OF_PERICENTER = 117.4964
MEAN_ANOMALY   = 242.8039

EPHEMERIS_TYPE = 0
CLASSIFICATION_TYPE = U
NORAD_CAT_ID   = 11267
ELEMENT_SET_NO = 999
REV_AT_EPOCH   = 52601
BSTAR          = .50001E-4
MEAN_MOTION_DOT = .532E-5
MEAN_MOTION_DDOT = 0

CCSDS_OMM_VERS = 2.0
CREATION_DATE  = 
ORIGINATOR     = 

OBJECT_NAME    = SL-8 R/B
OBJECT_ID      = 1979-089B
CENTER_NAME    = EARTH
REF_FRAME      = TEME
TIME_SYSTEM    = UTC
MEAN_ELEMENT_THEORY = SGP/SGP4

EPOCH          = 2026-02-19T03:46:14.623680
MEAN_MOTION    = 14.42338826
ECCENTRICITY   = .0016878
INCLINATION    = 74.0689
RA_OF_ASC_NODE = 125.3504
ARG_OF_PERICENTER = 299.8776
MEAN_ANOMALY   = 60.0703

EPHEMERIS_TYPE = 0
CLASSIFICATION_TYPE = U
NORAD_CAT_ID   = 11574
ELEMENT_SET_NO = 999
REV_AT_EPOCH   = 43343
BSTAR          = .80718E-4
MEAN_MOTION_DOT = .241E-5
MEAN_MOTION_DDOT = 0

CCSDS_OMM_VERS = 2.0
CREATION_DATE  = 
ORIGINATOR     = 

OBJECT_NAME    = SL-14 R/B
OBJECT_ID      = 1980-005B
CENTER_NAME    = EARTH
REF_FRAME      = TEME
TIME_SYSTEM    = UTC
MEAN_ELEMENT_THEORY = SGP/SGP4

EPOCH          = 2026-02-18T19:13:56.061120
MEAN_MOTION    = 14.90905291
ECCENTRICITY   = .0014545
INCLINATION    = 82.5173
RA_OF_ASC_NODE = 325.1489
ARG_OF_PERICENTER = 222.4622
MEAN_ANOMALY   = 137.5473

EPHEMERIS_TYPE = 0
CLASSIFICATION_TYPE = U
NORAD_CAT_ID   = 11672
ELEMENT_SET_NO = 999
REV_AT_EPOCH   = 47367
BSTAR          = .57666E-4
MEAN_MOTION_DOT = .595E-5
MEAN_MOTION_DDOT = 0

CCSDS_OMM_VERS = 2.0
CREATION_DATE  = 
ORIGINATOR     = 

OBJECT_NAME    = SL-8 R/B
OBJECT_ID      = 1981-003B
CENTER_NAME    = EARTH
REF_FRAME      = TEME
TIME_SYSTEM    = UTC
MEAN_ELEMENT_THEORY = SGP/SGP4

EPOCH          = 2026-02-19T02:54:48.853728
MEAN_MOTION    = 15.10266424
ECCENTRICITY   = .0262605
INCLINATION    = 82.9397
RA_OF_ASC_NODE = 307.1844
ARG_OF_PERICENTER = 243.2812
MEAN_ANOMALY   = 114.1325

EPHEMERIS_TYPE = 0
CLASSIFICATION_TYPE = U
NORAD_CAT_ID   = 12139
ELEMENT_SET_NO = 999
REV_AT_EPOCH   = 31187
BSTAR          = .35709E-3
MEAN_MOTION_DOT = .13596E-3
MEAN_MOTION_DDOT = 0

CCSDS_OMM_VERS = 2.0
CREATION_DATE  = 
ORIGINATOR     = 

OBJECT_NAME    = SL-3 R/B
OBJECT_ID      = 1981-046B
CENTER_NAME    = EARTH
REF_FRAME      = TEME
TIME_SYSTEM    = UTC
MEAN_ELEMENT_THEORY = SGP/SGP4

EPOCH          = 2026-02-19T03:46:26.145984
MEAN_MOTION    = 15.41469117
ECCENTRICITY   = .0020755
INCLINATION    = 81.2336
RA_OF_ASC_NODE = 311.9863
ARG_OF_PERICENTER = 83.6057
MEAN_ANOMALY   = 276.7548

EPHEMERIS_TYPE = 0
CLASSIFICATION_TYPE = U
NORAD_CAT_ID   = 12465
ELEMENT_SET_NO = 999
REV_AT_EPOCH   = 43557
BSTAR          = .27655E-3
MEAN_MOTION_DOT = .11703E-3
MEAN_MOTION_DDOT = 0

CCSDS_OMM_VERS = 2.0
CREATION_DATE  = 
ORIGINATOR     = 

OBJECT_NAME    = SL-3 R/B
OBJECT_ID      = 1981-103B
CENTER_NAME    = EARTH
REF_FRAME      = TEME
TIME_SYSTEM    = UTC
MEAN_ELEMENT_THEORY = SGP/SGP4

EPOCH          = 2026-02-19T02:12:23.685984
MEAN_MOTION    = 15.21137834
ECCENTRICITY   = .0013162
INCLINATION    = 81.1557
RA_OF_ASC_NODE = 235.2478
ARG_OF_PERICENTER = 352.0993
MEAN_ANOMALY   = 8.0029

EPHEMERIS_TYPE = 0
CLASSIFICATION_TYPE = U
NORAD_CAT_ID   = 12904
ELEMENT_SET_NO = 999
REV_AT_EPOCH   = 97040
BSTAR          = .20155E-3
MEAN_MOTION_DOT = .4521E-4
MEAN_MOTION_DDOT = 0

CCSDS_OMM_VERS = 2.0
CREATION_DATE  = 
ORIGINATOR     = 

OBJECT_NAME    = SL-3 R/B
OBJECT_ID      = 1982-013B
CENTER_NAME    = EARTH
REF_FRAME      = TEME
TIME_SYSTEM    = UTC
MEAN_ELEMENT_THEORY = SGP/SGP4

EPOCH          = 2026-02-19T02:35:27.811392
MEAN_MOTION    = 15.21800437
ECCENTRICITY   = .0021802
INCLINATION    = 81.1760
RA_OF_ASC_NODE = 182.5409
ARG_OF_PERICENTER = 241.3117
MEAN_ANOMALY   = 118.5923

EPHEMERIS_TYPE = 0
CLASSIFICATION_TYPE = U
NORAD_CAT_ID   = 13068
ELEMENT_SET_NO = 999
REV_AT_EPOCH   = 40152
BSTAR          = .22447E-3
MEAN_MOTION_DOT = .5152E-4
MEAN_MOTION_DDOT = 0

CCSDS_OMM_VERS = 2.0
CREATION_DATE  = 
ORIGINATOR     = 

OBJECT_NAME    = SL-3 R/B
OBJECT_ID      = 1982-039B
CENTER_NAME    = EARTH
REF_FRAME      = TEME
TIME_SYSTEM    = UTC
MEAN_ELEMENT_THEORY = SGP/SGP4

EPOCH          = 2026-02-19T02:27:59.169888
MEAN_MOTION    = 15.09968833
ECCENTRICITY   = .003001
INCLINATION    = 81.1590
RA_OF_ASC_NODE = 237.3883
ARG_OF_PERICENTER = 25.1820
MEAN_ANOMALY   = 335.0860

EPHEMERIS_TYPE = 0
CLASSIFICATION_TYPE = U
NORAD_CAT_ID   = 13154
ELEMENT_SET_NO = 999
REV_AT_EPOCH   = 37883
BSTAR          = .12486E-3
MEAN_MOTION_DOT = .2071E-4
MEAN_MOTION_DDOT = 0

